[
  {
    "comm_object_name": "EUTELSAT 117 WEST A",
    "comm_object_id": "2013-012A",
    "comm_norad_cat_id": 39122,
    "comm_owner": "EUTE",
    "comm_launch_date": "2013-03-26",
    "comm_launch_site": "TYMSC",
    "comm_tle1": "1 39122U 13012A   23166.42761350 -.00000009  00000+0  00000+0 0  9998",
    "comm_tle2": "2 39122   0.0101 355.7518 0002594  91.3327 213.4819  1.00272030 37429"
  },
  {
    "comm_object_name": "ANIK G1",
    "comm_object_id": "2013-014A",
    "comm_norad_cat_id": 39127,
    "comm_owner": "CA",
    "comm_launch_date": "2013-04-15",
    "comm_launch_site": "TYMSC",
    "comm_tle1": "1 39127U 13014A   23166.69156750 -.00000070  00000+0  00000+0 0  9994",
    "comm_tle2": "2 39127   0.0233 291.6981 0000872 143.8080 329.8426  1.00271984 37241"
  },
  {
    "comm_object_name": "NEE-01 PEGASO",
    "comm_object_id": "2013-018B",
    "comm_norad_cat_id": 39151,
    "comm_owner": "ECU",
    "comm_launch_date": "2013-04-26",
    "comm_launch_site": "JSC",
    "comm_tle1": "1 39151U 13018B   23167.10925400  .00002559  00000+0  32254-3 0  9991",
    "comm_tle2": "2 39151  98.0095 277.2763 0016885 151.5488 208.6650 14.82788835547531"
  },
  {
    "comm_object_name": "CHINASAT 11 (ZX 11)",
    "comm_object_id": "2013-020A",
    "comm_norad_cat_id": 39157,
    "comm_owner": "PRC",
    "comm_launch_date": "2013-05-01",
    "comm_launch_site": "XICLF",
    "comm_tle1": "1 39157U 13020A   23166.70465966 -.00000287  00000+0  00000+0 0  9998",
    "comm_tle2": "2 39157   0.0461 137.3037 0001136 248.9452 229.0327  1.00273232 36898"
  },
  {
    "comm_object_name": "ESTCUBE 1",
    "comm_object_id": "2013-021C",
    "comm_norad_cat_id": 39161,
    "comm_owner": "EST",
    "comm_launch_date": "2013-05-07",
    "comm_launch_site": "FRGUI",
    "comm_tle1": "1 39161U 13021C   23166.99852366  .00001695  00000+0  26330-3 0  9990",
    "comm_tle2": "2 39161  97.8717 239.2969 0008573 342.7062  17.3853 14.74320630542994"
  },
  {
    "comm_object_name": "EUTELSAT 7B",
    "comm_object_id": "2013-022A",
    "comm_norad_cat_id": 39163,
    "comm_owner": "EUTE",
    "comm_launch_date": "2013-05-14",
    "comm_launch_site": "TYMSC",
    "comm_tle1": "1 39163U 13022A   23166.78985384  .00000052  00000+0  00000+0 0  9995",
    "comm_tle2": "2 39163   0.0692  19.1818 0004433  17.1122 158.8412  1.00272535 36965"
  },
  {
    "comm_object_name": "WGS F5 (USA 243)",
    "comm_object_id": "2013-024A",
    "comm_norad_cat_id": 39168,
    "comm_owner": "US",
    "comm_launch_date": "2013-05-25",
    "comm_launch_site": "AFETR",
    "comm_tle1": "1 39168U 13024A   23166.46342433 -.00000280  00000+0  00000+0 0  9993",
    "comm_tle2": "2 39168   0.0138 348.1323 0000308 278.7828 110.8881  1.00273096 36169"
  },
  {
    "comm_object_name": "O3B FM5",
    "comm_object_id": "2013-031A",
    "comm_norad_cat_id": 39188,
    "comm_owner": "O3B",
    "comm_launch_date": "2013-06-25",
    "comm_launch_site": "FRGUI",
    "comm_tle1": "1 39188U 13031A   23166.67843161 -.00000022  00000+0  00000+0 0  9994",
    "comm_tle2": "2 39188   0.0507 345.8089 0003035  99.3949 274.8301  5.00115608182129"
  },
  {
    "comm_object_name": "O3B FM4",
    "comm_object_id": "2013-031B",
    "comm_norad_cat_id": 39189,
    "comm_owner": "O3B",
    "comm_launch_date": "2013-06-25",
    "comm_launch_site": "FRGUI",
    "comm_tle1": "1 39189U 13031B   23166.73418644 -.00000022  00000+0  00000+0 0  9996",
    "comm_tle2": "2 39189   0.0450  18.7202 0002983  67.2194 274.0936  5.00116049182156"
  },
  {
    "comm_object_name": "O3B FM2",
    "comm_object_id": "2013-031C",
    "comm_norad_cat_id": 39190,
    "comm_owner": "O3B",
    "comm_launch_date": "2013-06-25",
    "comm_launch_site": "FRGUI",
    "comm_tle1": "1 39190U 13031C   23166.22630014 -.00000022  00000+0  00000+0 0  9999",
    "comm_tle2": "2 39190   0.0447  25.3234 0002858  58.7181 275.9902  5.00115287182184"
  },
  {
    "comm_object_name": "O3B PFM",
    "comm_object_id": "2013-031D",
    "comm_norad_cat_id": 39191,
    "comm_owner": "O3B",
    "comm_launch_date": "2013-06-25",
    "comm_launch_site": "FRGUI",
    "comm_tle1": "1 39191U 13031D   23165.65258036 -.00000021  00000+0  00000+0 0  9995",
    "comm_tle2": "2 39191   0.0487 355.9381 0002645  85.5971 278.4941  5.00116024181712"
  },
  {
    "comm_object_name": "WGS F6 (USA 244)",
    "comm_object_id": "2013-041A",
    "comm_norad_cat_id": 39222,
    "comm_owner": "US",
    "comm_launch_date": "2013-08-08",
    "comm_launch_site": "AFETR",
    "comm_tle1": "1 39222U 13041A   23166.68607611  .00000093  00000+0  00000+0 0  9990",
    "comm_tle2": "2 39222   0.0246  11.8468 0000553 277.9786  85.6608  1.00271434 35046"
  },
  {
    "comm_object_name": "ES'HAIL 1",
    "comm_object_id": "2013-044A",
    "comm_norad_cat_id": 39233,
    "comm_owner": "AB",
    "comm_launch_date": "2013-08-29",
    "comm_launch_site": "FRGUI",
    "comm_tle1": "1 39233U 13044A   23166.74527890  .00000147  00000+0  00000+0 0  9992",
    "comm_tle2": "2 39233   0.0514  20.9649 0002111  70.9828 105.5917  1.00273783 35626"
  },
  {
    "comm_object_name": "AEHF-3 (USA 246)",
    "comm_object_id": "2013-050A",
    "comm_norad_cat_id": 39256,
    "comm_owner": "US",
    "comm_launch_date": "2013-09-18",
    "comm_launch_site": "AFETR",
    "comm_tle1": "1 39256U 13050A   23166.68224084  .00000136  00000+0  00000+0 0  9994",
    "comm_tle2": "2 39256   2.5655  73.9118 0050514 186.8409  93.5426  1.00275646 34669"
  },
  {
    "comm_object_name": "ASTRA 2E",
    "comm_object_id": "2013-056A",
    "comm_norad_cat_id": 39285,
    "comm_owner": "SES",
    "comm_launch_date": "2013-09-29",
    "comm_launch_site": "TYMSC",
    "comm_tle1": "1 39285U 13056A   23167.00543279  .00000155  00000+0  00000+0 0  9990",
    "comm_tle2": "2 39285   0.0554 350.7543 0002679 105.3707 198.3518  1.00273464 35580"
  },
  {
    "comm_object_name": "RADUGA-1M 3",
    "comm_object_id": "2013-062A",
    "comm_norad_cat_id": 39375,
    "comm_owner": "CIS",
    "comm_launch_date": "2013-11-11",
    "comm_launch_site": "TYMSC",
    "comm_tle1": "1 39375U 13062A   23166.57657803  .00000157  00000+0  00000+0 0  9999",
    "comm_tle2": "2 39375   3.1524  85.6470 0001846 223.2317 197.2411  1.00273407 35101"
  },
  {
    "comm_object_name": "RADUGA-1M 3 [+]",
    "comm_object_id": "2013-062A",
    "comm_norad_cat_id": 39375,
    "comm_owner": "CIS",
    "comm_launch_date": "2013-11-11",
    "comm_launch_site": "TYMSC",
    "comm_tle1": "1 39375U 13062A   23166.57657803  .00000157  00000+0  00000+0 0  9999",
    "comm_tle2": "2 39375   3.1524  85.6470 0001846 223.2317 197.2411  1.00273407 35101"
  },
  {
    "comm_object_name": "ZACUBE-1 (TSHEPISOSAT)",
    "comm_object_id": "2013-066B",
    "comm_norad_cat_id": 39417,
    "comm_owner": "SAFR",
    "comm_launch_date": "2013-11-21",
    "comm_launch_site": "DLS",
    "comm_tle1": "1 39417U 13066B   23166.41249469  .00002626  00000+0  30669-3 0  9999",
    "comm_tle2": "2 39417  97.6846 128.1405 0053156 294.2055  65.3610 14.84988446516935"
  },
  {
    "comm_object_name": "CUBEBUG-2 (LO-74)",
    "comm_object_id": "2013-066AA",
    "comm_norad_cat_id": 39440,
    "comm_owner": "ARGN",
    "comm_launch_date": "2013-11-21",
    "comm_launch_site": "DLS",
    "comm_tle1": "1 39440U 13066AA  23166.74877954  .00003830  00000+0  49540-3 0  9993",
    "comm_tle2": "2 39440  97.7721 115.5465 0076411  33.0980 327.4980 14.79416772513947"
  },
  {
    "comm_object_name": "NEE-02 KRYSAOR",
    "comm_object_id": "2013-066AB",
    "comm_norad_cat_id": 39441,
    "comm_owner": "ECU",
    "comm_launch_date": "2013-11-21",
    "comm_launch_site": "DLS",
    "comm_tle1": "1 39441U 13066AB  23166.38425641  .00002446  00000+0  33297-3 0  9990",
    "comm_tle2": "2 39441  97.7833 112.0248 0079562  50.6305 310.1919 14.77439019513587"
  },
  {
    "comm_object_name": "FUNCUBE-1 (AO-73)",
    "comm_object_id": "2013-066AE",
    "comm_norad_cat_id": 39444,
    "comm_owner": "UK",
    "comm_launch_date": "2013-11-21",
    "comm_launch_site": "DLS",
    "comm_tle1": "1 39444U 13066AE  23166.64657961  .00004087  00000+0  45505-3 0  9992",
    "comm_tle2": "2 39444  97.6709 130.9110 0051198 278.2775  81.2637 14.86691281515410"
  },
  {
    "comm_object_name": "INMARSAT 5-F1",
    "comm_object_id": "2013-073A",
    "comm_norad_cat_id": 39476,
    "comm_owner": "IM",
    "comm_launch_date": "2013-12-08",
    "comm_launch_site": "TYMSC",
    "comm_tle1": "1 39476U 13073A   23165.57870881  .00000030  00000+0  00000+0 0  9995",
    "comm_tle2": "2 39476   0.0240   5.5653 0000127 214.9566 313.0328  1.00271479 34574"
  },
  {
    "comm_object_name": "TKSAT-1 (TUPAC KATARI)",
    "comm_object_id": "2013-075A",
    "comm_norad_cat_id": 39481,
    "comm_owner": "BOL",
    "comm_launch_date": "2013-12-20",
    "comm_launch_site": "XICLF",
    "comm_tle1": "1 39481U 13075A   23166.62389859 -.00000191  00000+0  00000+0 0  9999",
    "comm_tle2": "2 39481   0.0541 129.9056 0002252 308.2489 322.8836  1.00272907 34843"
  },
  {
    "comm_object_name": "THAICOM 6",
    "comm_object_id": "2014-002A",
    "comm_norad_cat_id": 39500,
    "comm_owner": "THAI",
    "comm_launch_date": "2014-01-06",
    "comm_launch_site": "AFETR",
    "comm_tle1": "1 39500U 14002A   23166.71577117 -.00000116  00000+0  00000+0 0  9995",
    "comm_tle2": "2 39500   0.0546 125.9141 0003472   1.0217 112.9068  1.00270407 34458"
  },
  {
    "comm_object_name": "TDRS 12",
    "comm_object_id": "2014-004A",
    "comm_norad_cat_id": 39504,
    "comm_owner": "US",
    "comm_launch_date": "2014-01-24",
    "comm_launch_site": "AFETR",
    "comm_tle1": "1 39504U 14004A   23166.70481657 -.00000267  00000+0  00000+0 0  9990",
    "comm_tle2": "2 39504   3.6206 354.6554 0005489 142.8609 339.0463  1.00275540 33275"
  }
]